[{"OBJECT_NAME":"TEN-KOH","OBJECT_ID":"2018-084G","EPOCH":"2026-03-09T23:23:52.653408","MEAN_MOTION":15.02465351,"ECCENTRICITY":0.0011972,"INCLINATION":98.0798,"RA_OF_ASC_NODE":257.1735,"ARG_OF_PERICENTER":91.8355,"MEAN_ANOMALY":268.424,"EPHEMERIS_TYPE":0,"CLASSIFICATION_TYPE":"U","NORAD_CAT_ID":43677,"ELEMENT_SET_NO":999,"REV_AT_EPOCH":40126,"BSTAR":0.00025918134,"MEAN_MOTION_DOT":3.377e-5,"MEAN_MOTION_DDOT":0},{"OBJECT_NAME":"STARLINK-5265","OBJECT_ID":"2023-010BA","EPOCH":"2026-03-09T21:36:39.295584","MEAN_MOTION":14.98336373,"ECCENTRICITY":0.00028078,"INCLINATION":70.0014,"RA_OF_ASC_NODE":3.9602,"ARG_OF_PERICENTER":274.6158,"MEAN_ANOMALY":85.4681,"EPHEMERIS_TYPE":0,"CLASSIFICATION_TYPE":"U","NORAD_CAT_ID":55317,"ELEMENT_SET_NO":999,"REV_AT_EPOCH":17467,"BSTAR":-0.00016984666,"MEAN_MOTION_DOT":-2.119e-5,"MEAN_MOTION_DDOT":0}]
